{"type": "FeatureCollection", "features": [ {"type": "Feature", "properties": {"norad_id": 66840, "name": "STARLINK-35837", "group": "last-30-days", "lat": -45.03958200199986, "lon": 137.67014797902038, "alt_km": 402.86567797152657, "timestamp": "2025-12-27T02:10:14.908180+00:00", "meta": {"OBJECT_NAME": "STARLINK-35837", "OBJECT_ID": "2025-280V", "EPOCH": "2025-12-26T20:12:15.294816", "MEAN_MOTION": 15.54573922, "ECCENTRICITY": 0.0007544, "INCLINATION": 70.0008, "RA_OF_ASC_NODE": 159.7435, "ARG_OF_PERICENTER": 296.0651, "MEAN_ANOMALY": 63.976, "EPHEMERIS_TYPE": 0, "CLASSIFICATION_TYPE": "U", "NORAD_CAT_ID": 66840, "ELEMENT_SET_NO": 999, "REV_AT_EPOCH": 512, "BSTAR": 0.017506, "MEAN_MOTION_DOT": 0.01281556, "MEAN_MOTION_DDOT": 0}, "tle": {"line1": "1 66840U 25280V   25360.84184369  .01281556  00000+0  17506-1 0  9997", "line2": "2 66840  70.0008 159.7435 0007544 296.0651  63.9760 15.54573922  5126"}}, "geometry": {"type": "Point", "coordinates": [137.67014797902038, -45.03958200199986]}}, {"type": "Feature", "properties": {"norad_id": 66841, "name": "STARLINK-35715", "group": "last-30-days", "lat": -42.42944635491662, "lon": 139.61093574950047, "alt_km": 400.29256300192174, "timestamp": "2025-12-27T02:10:14.908191+00:00", "meta": {"OBJECT_NAME": "STARLINK-35715", "OBJECT_ID": "2025-280W", "EPOCH": "2025-12-26T20:11:42.569088", "MEAN_MOTION": 15.55243777, "ECCENTRICITY": 0.0005641, "INCLINATION": 70.0006, "RA_OF_ASC_NODE": 159.7422, "ARG_OF_PERICENTER": 310.701, "MEAN_ANOMALY": 49.3688, "EPHEMERIS_TYPE": 0, "CLASSIFICATION_TYPE": "U", "NORAD_CAT_ID": 66841, "ELEMENT_SET_NO": 999, "REV_AT_EPOCH": 512, "BSTAR": 0.032436, "MEAN_MOTION_DOT": 0.02478738, "MEAN_MOTION_DDOT": 0}, "tle": {"line1": "1 66841U 25280W   25360.84146492  .02478738  00000+0  32436-1 0  9993", "line2": "2 66841  70.0006 159.7422 0005641 310.7010  49.3688 15.55243777  5120"}}, "geometry": {"type": "Point", "coordinates": [139.61093574950047, -42.42944635491662]}}, {"type": "Feature", "properties": {"norad_id": 66842, "name": "STARLINK-35769", "group": "last-30-days", "lat": -40.61943804663351, "lon": 140.85153740929346, "alt_km": 402.00406646492684, "timestamp": "2025-12-27T02:10:14.908201+00:00", "meta": {"OBJECT_NAME": "STARLINK-35769", "OBJECT_ID": "2025-280X", "EPOCH": "2025-12-26T20:11:11.800320", "MEAN_MOTION": 15.55269183, "ECCENTRICITY": 0.0005387, "INCLINATION": 70.0008, "RA_OF_ASC_NODE": 159.7406, "ARG_OF_PERICENTER": 260.5794, "MEAN_ANOMALY": 99.4786, "EPHEMERIS_TYPE": 0, "CLASSIFICATION_TYPE": "U", "NORAD_CAT_ID": 66842, "ELEMENT_SET_NO": 999, "REV_AT_EPOCH": 512, "BSTAR": 0.031557, "MEAN_MOTION_DOT": 0.0240539, "MEAN_MOTION_DDOT": 0}, "tle": {"line1": "1 66842U 25280X   25360.84110880  .02405390  00000+0  31557-1 0  9993", "line2": "2 66842  70.0008 159.7406 0005387 260.5794  99.4786 15.55269183  5127"}}, "geometry": {"type": "Point", "coordinates": [140.85153740929346, -40.61943804663351]}}, {"type": "Feature", "properties": {"norad_id": 66843, "name": "STARLINK-35997", "group": "last-30-days", "lat": -37.29466510321636, "lon": 142.94389668046483, "alt_km": 400.4763737784524, "timestamp": "2025-12-27T02:10:14.908213+00:00", "meta": {"OBJECT_NAME": "STARLINK-35997", "OBJECT_ID": "2025-280Y", "EPOCH": "2025-12-26T20:10:13.729152", "MEAN_MOTION": 15.55229382, "ECCENTRICITY": 0.0005339, "INCLINATION": 70.0008, "RA_OF_ASC_NODE": 159.7371, "ARG_OF_PERICENTER": 306.8826, "MEAN_ANOMALY": 53.1873, "EPHEMERIS_TYPE": 0, "CLASSIFICATION_TYPE": "U", "NORAD_CAT_ID": 66843, "ELEMENT_SET_NO": 999, "REV_AT_EPOCH": 512, "BSTAR": 0.031804, "MEAN_MOTION_DOT": 0.0242274, "MEAN_MOTION_DDOT": 0}, "tle": {"line1": "1 66843U 25280Y   25360.84043668  .02422740  00000+0  31804-1 0  9996", "line2": "2 66843  70.0008 159.7371 0005339 306.8826  53.1873 15.55229382  5127"}}, "geometry": {"type": "Point", "coordinates": [142.94389668046483, -37.29466510321636]}}, {"type": "Feature", "properties": {"norad_id": 66844, "name": "STARLINK-36073", "group": "last-30-days", "lat": -43.398421513391774, "lon": 138.91156134052312, "alt_km": 413.36399646512837, "timestamp": "2025-12-27T02:10:14.908223+00:00", "meta": {"OBJECT_NAME": "STARLINK-36073", "OBJECT_ID": "2025-280Z", "EPOCH": "2025-12-26T08:00:01.000224", "MEAN_MOTION": 15.52420843, "ECCENTRICITY": 0.0003423, "INCLINATION": 70.0004, "RA_OF_ASC_NODE": 161.1302, "ARG_OF_PERICENTER": 270.9014, "MEAN_ANOMALY": 131.8672, "EPHEMERIS_TYPE": 0, "CLASSIFICATION_TYPE": "U", "NORAD_CAT_ID": 66844, "ELEMENT_SET_NO": 999, "REV_AT_EPOCH": 508, "BSTAR": 0.0025125, "MEAN_MOTION_DOT": 0.00156941, "MEAN_MOTION_DDOT": 0}, "tle": {"line1": "1 66844U 25280Z   25360.33334491  .00156941  00000+0  25125-2 0  9993", "line2": "2 66844  70.0004 161.1302 0003423 270.9014 131.8672 15.52420843  5085"}}, "geometry": {"type": "Point", "coordinates": [138.91156134052312, -43.398421513391774]}}, {"type": "Feature", "properties": {"norad_id": 66845, "name": "STARLINK-36068", "group": "last-30-days", "lat": -36.5750702737959, "lon": 143.3700400862552, "alt_km": 413.388943022298, "timestamp": "2025-12-27T02:10:14.908235+00:00", "meta": {"OBJECT_NAME": "STARLINK-36068", "OBJECT_ID": "2025-280AA", "EPOCH": "2025-12-26T17:03:43.852608", "MEAN_MOTION": 15.52542681, "ECCENTRICITY": 0.0003482, "INCLINATION": 70.0011, "RA_OF_ASC_NODE": 160.0877, "ARG_OF_PERICENTER": 272.5391, "MEAN_ANOMALY": 87.5397, "EPHEMERIS_TYPE": 0, "CLASSIFICATION_TYPE": "U", "NORAD_CAT_ID": 66845, "ELEMENT_SET_NO": 999, "REV_AT_EPOCH": 510, "BSTAR": 0.0010721, "MEAN_MOTION_DOT": 0.00066397, "MEAN_MOTION_DDOT": 0}, "tle": {"line1": "1 66845U 25280AA  25360.71092422  .00066397  00000+0  10721-2 0  9992", "line2": "2 66845  70.0011 160.0877 0003482 272.5391  87.5397 15.52542681  5109"}}, "geometry": {"type": "Point", "coordinates": [143.3700400862552, -36.5750702737959]}}, {"type": "Feature", "properties": {"norad_id": 66846, "name": "STARLINK-36055", "group": "last-30-days", "lat": -39.95135557435679, "lon": 141.2914820217035, "alt_km": 413.5114324637043, "timestamp": "2025-12-27T02:10:14.908247+00:00", "meta": {"OBJECT_NAME": "STARLINK-36055", "OBJECT_ID": "2025-280AB", "EPOCH": "2025-12-25T17:53:01.855968", "MEAN_MOTION": 15.52504965, "ECCENTRICITY": 0.00033929, "INCLINATION": 70.001, "RA_OF_ASC_NODE": 162.7379, "ARG_OF_PERICENTER": 270.6917, "MEAN_ANOMALY": 89.3881, "EPHEMERIS_TYPE": 0, "CLASSIFICATION_TYPE": "U", "NORAD_CAT_ID": 66846, "ELEMENT_SET_NO": 999, "REV_AT_EPOCH": 495, "BSTAR": 0.00066927244, "MEAN_MOTION_DOT": 0.000412, "MEAN_MOTION_DDOT": 0}, "tle": {"line1": "1 66846U 25280AB  25359.74516037  .00041200  00000+0  66927-3 0  9993", "line2": "2 66846  70.0010 162.7379 0003392 270.6917  89.3881 15.52504965  4951"}}, "geometry": {"type": "Point", "coordinates": [141.2914820217035, -39.95135557435679]}}, {"type": "Feature", "properties": {"norad_id": 66847, "name": "STARLINK-36061", "group": "last-30-days", "lat": -33.794866162571616, "lon": 144.9360028623915, "alt_km": 403.40248469195467, "timestamp": "2025-12-27T02:10:14.908257+00:00", "meta": {"OBJECT_NAME": "STARLINK-36061", "OBJECT_ID": "2025-280AC", "EPOCH": "2025-12-26T20:09:13.959360", "MEAN_MOTION": 15.55200601, "ECCENTRICITY": 0.0005445, "INCLINATION": 70.0009, "RA_OF_ASC_NODE": 159.735, "ARG_OF_PERICENTER": 244.0353, "MEAN_ANOMALY": 116.0275, "EPHEMERIS_TYPE": 0, "CLASSIFICATION_TYPE": "U", "NORAD_CAT_ID": 66847, "ELEMENT_SET_NO": 999, "REV_AT_EPOCH": 512, "BSTAR": 0.03023, "MEAN_MOTION_DOT": 0.02336498, "MEAN_MOTION_DDOT": 0}, "tle": {"line1": "1 66847U 25280AC  25360.83974490  .02336498  00000+0  30230-1 0  9991", "line2": "2 66847  70.0009 159.7350 0005445 244.0353 116.0275 15.55200601  5123"}}, "geometry": {"type": "Point", "coordinates": [144.9360028623915, -33.794866162571616]}}, {"type": "Feature", "properties": {"norad_id": 66848, "name": "STARLINK-36091", "group": "last-30-days", "lat": 42.01964171433283, "lon": 140.51998041778097, "alt_km": 409.2631615125165, "timestamp": "2025-12-27T02:10:14.908267+00:00", "meta": {"OBJECT_NAME": "STARLINK-36091", "OBJECT_ID": "2025-281A", "EPOCH": "2025-12-26T20:00:01.999008", "MEAN_MOTION": 15.50648024, "ECCENTRICITY": 0.0001323, "INCLINATION": 43.0007, "RA_OF_ASC_NODE": 37.2411, "ARG_OF_PERICENTER": 261.1469, "MEAN_ANOMALY": 202.9057, "EPHEMERIS_TYPE": 0, "CLASSIFICATION_TYPE": "U", "NORAD_CAT_ID": 66848, "ELEMENT_SET_NO": 999, "REV_AT_EPOCH": 365, "BSTAR": -0.0028063, "MEAN_MOTION_DOT": -0.00162007, "MEAN_MOTION_DDOT": 0}, "tle": {"line1": "1 66848U 25281A   25360.83335647 -.00162007  00000+0 -28063-2 0  9993", "line2": "2 66848  43.0007  37.2411 0001323 261.1469 202.9057 15.50648024  3658"}}, "geometry": {"type": "Point", "coordinates": [140.51998041778097, 42.01964171433283]}}, {"type": "Feature", "properties": {"norad_id": 66849, "name": "STARLINK-36102", "group": "last-30-days", "lat": 41.65823502585541, "lon": 143.04016436977724, "alt_km": 409.23581848196136, "timestamp": "2025-12-27T02:10:14.908277+00:00", "meta": {"OBJECT_NAME": "STARLINK-36102", "OBJECT_ID": "2025-281B", "EPOCH": "2025-12-26T20:00:01.999008", "MEAN_MOTION": 15.50637793, "ECCENTRICITY": 0.0001221, "INCLINATION": 43.0004, "RA_OF_ASC_NODE": 37.2353, "ARG_OF_PERICENTER": 260.4809, "MEAN_ANOMALY": 205.4898, "EPHEMERIS_TYPE": 0, "CLASSIFICATION_TYPE": "U", "NORAD_CAT_ID": 66849, "ELEMENT_SET_NO": 999, "REV_AT_EPOCH": 365, "BSTAR": -0.0024355, "MEAN_MOTION_DOT": -0.00140972, "MEAN_MOTION_DDOT": 0}, "tle": {"line1": "1 66849U 25281B   25360.83335647 -.00140972  00000+0 -24355-2 0  9991", "line2": "2 66849  43.0004  37.2353 0001221 260.4809 205.4898 15.50637793  3650"}}, "geometry": {"type": "Point", "coordinates": [143.04016436977724, 41.65823502585541]}}]}